start=new Date('2022-07-04T00:00:00.000Z').valueOf();
sats=[{"MEAN_ANOMALY":"287.9005","COUNTRY_CODE":"US","ARG_OF_PERICENTER":"72.2131","TLE_LINE1":"1 48677U 21044AR  22184.88304557  .00000676  00000-0  64277-4 0  9999","GP_ID":"207355339","MEAN_MOTION_DOT":"0.00000676","CENTER_NAME":"EARTH","NORAD_CAT_ID":"48677","SEMIMAJOR_AXIS":"6925.320","MEAN_ELEMENT_THEORY":"SGP4","APOAPSIS":"548.117","INCLINATION":"53.0575","EPOCH":"2022-07-03T21:11:35.137248","MEAN_MOTION":"15.06409175","OBJECT_TYPE":"PAYLOAD","SITE":"AFETR","RCS_SIZE":"LARGE","MEAN_MOTION_DDOT":"0.0000000000000","PERIOD":"95.592","DECAY_DATE":null,"LAUNCH_DATE":"2021-05-26","PERIAPSIS":"546.254","CLASSIFICATION_TYPE":"U","OBJECT_NAME":"STARLINK-2719","OBJECT_ID":"2021-044AR","EPHEMERIS_TYPE":"0","FILE":"3507292","REF_FRAME":"TEME","TIME_SYSTEM":"UTC","ECCENTRICITY":"0.00013450","BSTAR":"0.00006427700000","TLE_LINE2":"2 48677  53.0575  28.6893 0001345  72.2131 287.9005 15.06409175 61156","REV_AT_EPOCH":"6115","ELEMENT_SET_NO":"999","RA_OF_ASC_NODE":"28.6893"},{"LAUNCH_DATE":"2021-05-26","PERIAPSIS":"546.015","SITE":"AFETR","OBJECT_TYPE":"PAYLOAD","DECAY_DATE":null,"RCS_SIZE":"LARGE","MEAN_MOTION_DDOT":"0.0000000000000","PERIOD":"95.592","TIME_SYSTEM":"UTC","TLE_LINE2":"2 48678  53.0562  28.7082 0001734  72.5378 287.5800 15.06399088 61152","ELEMENT_SET_NO":"999","RA_OF_ASC_NODE":"28.7082","REV_AT_EPOCH":"6115","BSTAR":"0.00005743600000","ECCENTRICITY":"0.00017340","EPHEMERIS_TYPE":"0","OBJECT_ID":"2021-044AS","OBJECT_NAME":"STARLINK-2615","CLASSIFICATION_TYPE":"U","REF_FRAME":"TEME","FILE":"3507292","GP_ID":"207356090","TLE_LINE1":"1 48678U 21044AS  22184.88031686  .00000574  00000-0  57436-4 0  9996","MEAN_ANOMALY":"287.5800","ARG_OF_PERICENTER":"72.5378","COUNTRY_CODE":"US","MEAN_ELEMENT_THEORY":"SGP4","SEMIMAJOR_AXIS":"6925.351","MEAN_MOTION":"15.06399088","EPOCH":"2022-07-03T21:07:39.376704","INCLINATION":"53.0562","APOAPSIS":"548.417","MEAN_MOTION_DOT":"0.00000574","NORAD_CAT_ID":"48678","CENTER_NAME":"EARTH"},{"RCS_SIZE":"LARGE","MEAN_MOTION_DDOT":"0.0000000000000","PERIOD":"95.592","DECAY_DATE":null,"OBJECT_TYPE":"PAYLOAD","SITE":"AFETR","PERIAPSIS":"546.202","LAUNCH_DATE":"2021-05-26","REF_FRAME":"TEME","FILE":"3507292","OBJECT_ID":"2021-044AT","EPHEMERIS_TYPE":"0","OBJECT_NAME":"STARLINK-2648","CLASSIFICATION_TYPE":"U","TLE_LINE2":"2 48679  53.0563  28.7309 0001427  79.1411 280.9739 15.06407478 61157","RA_OF_ASC_NODE":"28.7309","REV_AT_EPOCH":"6115","ELEMENT_SET_NO":"999","ECCENTRICITY":"0.00014270","BSTAR":"0.00008883700000","TIME_SYSTEM":"UTC","COUNTRY_CODE":"US","ARG_OF_PERICENTER":"79.1411","MEAN_ANOMALY":"280.9739","TLE_LINE1":"1 48679U 21044AT  22184.87662414  .00001042  00000-0  88837-4 0  9995","GP_ID":"207356338","NORAD_CAT_ID":"48679","CENTER_NAME":"EARTH","MEAN_MOTION_DOT":"0.00001042","EPOCH":"2022-07-03T21:02:20.325696","MEAN_MOTION":"15.06407478","APOAPSIS":"548.179","INCLINATION":"53.0563","SEMIMAJOR_AXIS":"6925.326","MEAN_ELEMENT_THEORY":"SGP4"},{"COUNTRY_CODE":"US","ARG_OF_PERICENTER":"70.1946","MEAN_ANOMALY":"289.9232","TLE_LINE1":"1 48680U 21044AU  22184.87293791  .00000858  00000-0  76508-4 0  9991","GP_ID":"207357075","NORAD_CAT_ID":"48680","CENTER_NAME":"EARTH","MEAN_MOTION_DOT":"0.00000858","EPOCH":"2022-07-03T20:57:01.835424","MEAN_MOTION":"15.06406984","APOAPSIS":"548.407","INCLINATION":"53.0562","SEMIMAJOR_AXIS":"6925.327","MEAN_ELEMENT_THEORY":"SGP4","RCS_SIZE":"LARGE","PERIOD":"95.592","MEAN_MOTION_DDOT":"0.0000000000000","DECAY_DATE":null,"OBJECT_TYPE":"PAYLOAD","SITE":"AFETR","PERIAPSIS":"545.977","LAUNCH_DATE":"2021-05-26","REF_FRAME":"TEME","FILE":"3507292","OBJECT_NAME":"STARLINK-2649","OBJECT_ID":"2021-044AU","EPHEMERIS_TYPE":"0","CLASSIFICATION_TYPE":"U","RA_OF_ASC_NODE":"28.7504","TLE_LINE2":"2 48680  53.0562  28.7504 0001754  70.1946 289.9232 15.06406984 61150","ELEMENT_SET_NO":"999","REV_AT_EPOCH":"6115","ECCENTRICITY":"0.00017540","BSTAR":"0.00007650800000","TIME_SYSTEM":"UTC"},{"OBJECT_TYPE":"PAYLOAD","SITE":"AFETR","RCS_SIZE":"LARGE","MEAN_MOTION_DDOT":"0.0000000000000","PERIOD":"95.592","DECAY_DATE":null,"LAUNCH_DATE":"2021-05-26","PERIAPSIS":"546.289","CLASSIFICATION_TYPE":"U","OBJECT_NAME":"STARLINK-2725","OBJECT_ID":"2021-044AV","EPHEMERIS_TYPE":"0","FILE":"3507292","REF_FRAME":"TEME","TIME_SYSTEM":"UTC","ECCENTRICITY":"0.00013160","BSTAR":"0.00012459000000","TLE_LINE2":"2 48681  53.0568 359.2706 0001316  88.3073 271.8067 15.06404423 61555","RA_OF_ASC_NODE":"359.2706","ELEMENT_SET_NO":"999","REV_AT_EPOCH":"6155","MEAN_ANOMALY":"271.8067","COUNTRY_CODE":"US","ARG_OF_PERICENTER":"88.3073","TLE_LINE1":"1 48681U 21044AV  22184.80570033  .00001575  00000-0  12459-3 0  9993","GP_ID":"207355839","MEAN_MOTION_DOT":"0.00001575","CENTER_NAME":"EARTH","NORAD_CAT_ID":"48681","SEMIMAJOR_AXIS":"6925.335","MEAN_ELEMENT_THEORY":"SGP4","APOAPSIS":"548.111","INCLINATION":"53.0568","EPOCH":"2022-07-03T19:20:12.508512","MEAN_MOTION":"15.06404423"},{"COUNTRY_CODE":"US","ARG_OF_PERICENTER":"55.4312","MEAN_ANOMALY":"294.0764","GP_ID":"207356590","TLE_LINE1":"1 48682U 21044AW  22185.00001157 -.00038275  00000-0 -25648-2 0  9995","NORAD_CAT_ID":"48682","CENTER_NAME":"EARTH","MEAN_MOTION_DOT":"-0.00038275","EPOCH":"2022-07-04T00:00:00.999648","MEAN_MOTION":"15.06395239","APOAPSIS":"548.363","INCLINATION":"53.0552","SEMIMAJOR_AXIS":"6925.363","MEAN_ELEMENT_THEORY":"SGP4","RCS_SIZE":"LARGE","MEAN_MOTION_DDOT":"0.0000000000000","PERIOD":"95.592","DECAY_DATE":null,"OBJECT_TYPE":"PAYLOAD","SITE":"AFETR","PERIAPSIS":"546.094","LAUNCH_DATE":"2021-05-26","REF_FRAME":"TEME","FILE":"3507292","EPHEMERIS_TYPE":"0","OBJECT_ID":"2021-044AW","OBJECT_NAME":"STARLINK-2743","CLASSIFICATION_TYPE":"U","TLE_LINE2":"2 48682  53.0552 348.3360 0001638  55.4312 294.0764 15.06395239  1304","ELEMENT_SET_NO":"999","RA_OF_ASC_NODE":"348.3360","REV_AT_EPOCH":"130","BSTAR":"-0.00256480000000","ECCENTRICITY":"0.00016380","TIME_SYSTEM":"UTC"},{"MEAN_MOTION_DOT":"-0.00000223","NORAD_CAT_ID":"48683","CENTER_NAME":"EARTH","SEMIMAJOR_AXIS":"6925.328","MEAN_ELEMENT_THEORY":"SGP4","EPOCH":"2022-07-03T21:23:34.706688","MEAN_MOTION":"15.06406632","APOAPSIS":"548.176","INCLINATION":"53.0573","MEAN_ANOMALY":"284.8254","COUNTRY_CODE":"US","ARG_OF_PERICENTER":"75.2892","GP_ID":"207356838","TLE_LINE1":"1 48683U 21044AX  22184.89137392 -.00000223  00000-0  39426-5 0  9996","OBJECT_NAME":"STARLINK-2756","EPHEMERIS_TYPE":"0","OBJECT_ID":"2021-044AX","CLASSIFICATION_TYPE":"U","REF_FRAME":"TEME","FILE":"3507292","TIME_SYSTEM":"UTC","ELEMENT_SET_NO":"999","TLE_LINE2":"2 48683  53.0573 348.6715 0001419  75.2892 284.8254 15.06406632 61717","RA_OF_ASC_NODE":"348.6715","REV_AT_EPOCH":"6171","BSTAR":"0.00000394260000","ECCENTRICITY":"0.00014190","OBJECT_TYPE":"PAYLOAD","SITE":"AFETR","RCS_SIZE":"LARGE","MEAN_MOTION_DDOT":"0.0000000000000","PERIOD":"95.592","DECAY_DATE":null,"LAUNCH_DATE":"2021-05-26","PERIAPSIS":"546.211"},{"MEAN_MOTION_DOT":"0.00000637","NORAD_CAT_ID":"48684","CENTER_NAME":"EARTH","MEAN_ELEMENT_THEORY":"SGP4","SEMIMAJOR_AXIS":"6925.312","MEAN_MOTION":"15.06411780","EPOCH":"2022-07-03T20:20:36.274848","INCLINATION":"53.0560","APOAPSIS":"548.106","MEAN_ANOMALY":"284.1642","ARG_OF_PERICENTER":"75.9496","COUNTRY_CODE":"US","TLE_LINE1":"1 48684U 21044AY  22184.84764207  .00000637  00000-0  61646-4 0  9999","GP_ID":"207356576","OBJECT_ID":"2021-044AY","OBJECT_NAME":"STARLINK-2741","EPHEMERIS_TYPE":"0","CLASSIFICATION_TYPE":"U","REF_FRAME":"TEME","FILE":"3507292","TIME_SYSTEM":"UTC","ELEMENT_SET_NO":"999","TLE_LINE2":"2 48684  53.0560   4.2066 0001341  75.9496 284.1642 15.06411780 61498","RA_OF_ASC_NODE":"4.2066","REV_AT_EPOCH":"6149","BSTAR":"0.00006164600000","ECCENTRICITY":"0.00013410","SITE":"AFETR","OBJECT_TYPE":"PAYLOAD","DECAY_DATE":null,"RCS_SIZE":"LARGE","PERIOD":"95.591","MEAN_MOTION_DDOT":"0.0000000000000","LAUNCH_DATE":"2021-05-26","PERIAPSIS":"546.249"},{"APOAPSIS":"548.116","INCLINATION":"53.0574","EPOCH":"2022-07-03T17:30:01.940832","MEAN_MOTION":"15.06407158","SEMIMAJOR_AXIS":"6925.327","MEAN_ELEMENT_THEORY":"SGP4","CENTER_NAME":"EARTH","NORAD_CAT_ID":"48685","MEAN_MOTION_DOT":"0.00000942","GP_ID":"207355340","TLE_LINE1":"1 48685U 21044AZ  22184.72918913  .00000942  00000-0  82104-4 0  9993","COUNTRY_CODE":"US","ARG_OF_PERICENTER":"88.0701","MEAN_ANOMALY":"272.0441","ECCENTRICITY":"0.00013350","BSTAR":"0.00008210400000","TLE_LINE2":"2 48685  53.0574 349.4354 0001335  88.0701 272.0441 15.06407158 61694","RA_OF_ASC_NODE":"349.4354","REV_AT_EPOCH":"6169","ELEMENT_SET_NO":"999","TIME_SYSTEM":"UTC","FILE":"3507292","REF_FRAME":"TEME","CLASSIFICATION_TYPE":"U","OBJECT_ID":"2021-044AZ","OBJECT_NAME":"STARLINK-2751","EPHEMERIS_TYPE":"0","PERIAPSIS":"546.267","LAUNCH_DATE":"2021-05-26","PERIOD":"95.592","RCS_SIZE":"LARGE","MEAN_MOTION_DDOT":"0.0000000000000","DECAY_DATE":null,"OBJECT_TYPE":"PAYLOAD","SITE":"AFETR"},{"TLE_LINE1":"1 48686U 21044BA  22184.78958187  .00002232  00000-0  16863-3 0  9999","GP_ID":"207356091","MEAN_ANOMALY":"297.1567","COUNTRY_CODE":"US","ARG_OF_PERICENTER":"62.9584","SEMIMAJOR_AXIS":"6925.327","MEAN_ELEMENT_THEORY":"SGP4","EPOCH":"2022-07-03T18:56:59.873568","MEAN_MOTION":"15.06407136","APOAPSIS":"548.289","INCLINATION":"53.0571","MEAN_MOTION_DOT":"0.00002232","NORAD_CAT_ID":"48686","CENTER_NAME":"EARTH","LAUNCH_DATE":"2021-05-26","PERIAPSIS":"546.094","OBJECT_TYPE":"PAYLOAD","SITE":"AFETR","PERIOD":"95.592","RCS_SIZE":"LARGE","MEAN_MOTION_DDOT":"0.0000000000000","DECAY_DATE":null,"TIME_SYSTEM":"UTC","TLE_LINE2":"2 48686  53.0571 354.3963 0001585  62.9584 297.1567 15.06407136 61626","RA_OF_ASC_NODE":"354.3963","ELEMENT_SET_NO":"999","REV_AT_EPOCH":"6162","BSTAR":"0.00016863000000","ECCENTRICITY":"0.00015850","EPHEMERIS_TYPE":"0","OBJECT_ID":"2021-044BA","OBJECT_NAME":"STARLINK-2629","CLASSIFICATION_TYPE":"U","REF_FRAME":"TEME","FILE":"3507292"}];
